NORAD_CAT_ID,OBJECT_NAME,OBJECT_TYPE,EPOCH,MEAN_MOTION,ECCENTRICITY,INCLINATION,RA_OF_ASC_NODE,ARG_OF_PERICENTER,MEAN_ANOMALY,BSTAR,MEAN_MOTION_DOT,MEAN_MOTION_DDOT,TLE_LINE0,TLE_LINE1,TLE_LINE2,SEMIMAJOR_AXIS,PERIOD,APOGEE,PERIGEE,DECAYED
53701.0,STARLINK-4711,PAYLOAD,2023-04-05 22:22:44,15.08842625,0.000113,53.2185,1.5437,85.147,274.9651,0.00037789,5.732e-05,0.0,0 STARLINK-4711,1 53701U 22107B   23095.93246281  .00005732  00000-0  37789-3 0  9996,2 53701  53.2185   1.5437 0001130  85.1470 274.9651 15.08842625 32765,6917.872,95.437,540.519,538.956,0.0
53701.0,STARLINK-4711,PAYLOAD,2023-04-06 03:08:54,15.08848025,0.0001163,53.2178,0.6514,94.243,265.8695,0.00043593,6.658e-05,0.0,0 STARLINK-4711,1 53701U 22107B   23096.13118078  .00006658  00000-0  43593-3 0  9999,2 53701  53.2178   0.6514 0001163  94.2430 265.8695 15.08848025 33540,6917.856,95.437,540.525,538.916,0.0
53701.0,STARLINK-4711,PAYLOAD,2023-04-07 02:59:41,15.0884279,0.0001183,53.218,356.1927,77.5875,282.525,0.00022081,3.228e-05,0.0,0 STARLINK-4711,1 53701U 22107B   23097.12478468  .00003228  00000-0  22081-3 0  9990,2 53701  53.2180 356.1927 0001183  77.5875 282.5250 15.08842790 32948,6917.872,95.437,540.555,538.918,0.0
53701.0,STARLINK-4711,PAYLOAD,2023-04-08 02:50:27,15.08851294,0.0001127,53.2171,351.7325,81.4186,278.6934,0.00025996,3.853e-05,0.0,0 STARLINK-4711,1 53701U 22107B   23098.11837830  .00003853  00000-0  25996-3 0  9994,2 53701  53.2171 351.7325 0001127  81.4186 278.6934 15.08851294 33842,6917.846,95.437,540.491,538.931,0.0
53701.0,STARLINK-4711,PAYLOAD,2023-04-08 17:08:56,15.08836812,0.0001212,53.2172,349.0574,76.0788,284.0339,-1.4564e-05,-5.2e-06,0.0,0 STARLINK-4711,1 53701U 22107B   23098.71454674 -.00000520  00000-0 -14564-4 0  9991,2 53701  53.2172 349.0574 0001212  76.0788 284.0339 15.08836812 33188,6917.89,95.438,540.594,538.917,0.0
53701.0,STARLINK-4711,PAYLOAD,2023-04-09 01:05:52,15.08843141,0.0001002,53.2175,347.5701,84.8815,275.2291,0.00015998,2.259e-05,0.0,0 STARLINK-4711,1 53701U 22107B   23099.04574483  .00002259  00000-0  15998-3 0  9999,2 53701  53.2175 347.5701 0001002  84.8815 275.2291 15.08843141 33981,6917.871,95.437,540.429,539.043,0.0
53701.0,STARLINK-4711,PAYLOAD,2023-04-09 23:21:16,15.08842701,0.0001004,53.2178,343.4087,97.7793,262.3313,0.00018461,2.652e-05,0.0,0 STARLINK-4711,1 53701U 22107B   23099.97310623  .00002652  00000-0  18461-3 0  9990,2 53701  53.2178 343.4087 0001004  97.7793 262.3313 15.08842701 33372,6917.872,95.437,540.432,539.043,0.0
53701.0,STARLINK-4711,PAYLOAD,2023-04-10 02:32:02,15.08848729,9.7e-05,53.2175,342.8129,91.6373,268.4731,0.00035496,5.367e-05,0.0,0 STARLINK-4711,1 53701U 22107B   23100.10558499  .00005367  00000-0  35496-3 0  9996,2 53701  53.2175 342.8129 0000970  91.6373 268.4731 15.08848729 34140,6917.854,95.437,540.39,539.048,0.0
53701.0,STARLINK-4711,PAYLOAD,2023-04-11 00:47:26,15.08847464,9.01e-05,53.2168,338.6495,84.7869,275.3226,0.00022454,3.288e-05,0.0,0 STARLINK-4711,1 53701U 22107B   23101.03294407  .00003288  00000-0  22454-3 0  9995,2 53701  53.2168 338.6495 0000901  84.7869 275.3226 15.08847464 33531,6917.858,95.437,540.346,539.099,0.0
53701.0,STARLINK-4711,PAYLOAD,2023-04-11 21:27:27,15.08832837,9.83e-05,53.2168,334.7836,77.3755,282.7347,-3.6219e-05,-8.64e-06,0.0,0 STARLINK-4711,1 53701U 22107B   23101.89407220 -.00000864  00000-0 -36219-4 0  9992,2 53701  53.2168 334.7836 0000983  77.3755 282.7347 15.08832837 34411,6917.902,95.438,540.447,539.087,0.0
53701.0,STARLINK-4711,PAYLOAD,2023-04-12 02:13:37,15.0883855,0.0001041,53.2173,333.8913,80.4437,279.6673,2.4085e-05,9.6e-07,0.0,0 STARLINK-4711,1 53701U 22107B   23102.09279189  .00000096  00000-0  24085-4 0  9999,2 53701  53.2173 333.8913 0001041  80.4437 279.6673 15.08838550 33695,6917.885,95.438,540.47,539.03,0.0
53701.0,STARLINK-4711,PAYLOAD,2023-04-13 00:29:01,15.088425,0.0001225,53.2186,329.7275,73.3321,286.7806,0.00018836,2.711e-05,0.0,0 STARLINK-4711,1 53701U 22107B   23103.02015402  .00002711  00000-0  18836-3 0  9991,2 53701  53.2186 329.7275 0001225  73.3321 286.7806 15.08842500 34587,6917.873,95.437,540.585,538.89,0.0
53701.0,STARLINK-4711,PAYLOAD,2023-04-14 00:19:47,15.08850851,0.0001164,53.2183,325.2662,87.7985,272.314,0.00030871,4.63e-05,0.0,0 STARLINK-4711,1 53701U 22107B   23104.01374950  .00004630  00000-0  30871-3 0  9992,2 53701  53.2183 325.2662 0001164  87.7985 272.3140 15.08850851 34739,6917.847,95.437,540.517,538.907,0.0
53701.0,STARLINK-4711,PAYLOAD,2023-04-15 00:10:34,15.08850251,0.0001189,53.2175,320.8063,80.3628,279.7498,0.00019463,2.812e-05,0.0,0 STARLINK-4711,1 53701U 22107B   23105.00734784  .00002812  00000-0  19463-3 0  9991,2 53701  53.2175 320.8063 0001189  80.3628 279.7498 15.08850251 34883,6917.849,95.437,540.537,538.892,0.0
53701.0,STARLINK-4711,PAYLOAD,2023-04-15 20:50:37,15.08822121,0.0001244,53.2168,316.9406,111.694,248.4184,-0.00019278,-3.353e-05,0.0,0 STARLINK-4711,1 53701U 22107B   23105.86848645 -.00003353  00000-0 -19278-3 0  9994,2 53701  53.2168 316.9406 0001244 111.6940 248.4184 15.08822121 35015,6917.935,95.439,540.661,538.939,0.0
53701.0,STARLINK-4711,PAYLOAD,2023-04-16 00:01:23,15.08832223,9.85e-05,53.216,316.3448,111.8853,248.2244,7.2822e-05,8.71e-06,0.0,0 STARLINK-4711,1 53701U 22107B   23106.00096427  .00000871  00000-0  72822-4 0  9999,2 53701  53.2160 316.3448 0000985 111.8853 248.2244 15.08832223 34280,6917.904,95.438,540.451,539.088,0.0
53701.0,STARLINK-4711,PAYLOAD,2023-04-16 14:19:51,15.08842882,0.0001187,53.2166,313.6717,74.3273,285.785,0.00064709,0.00010026,0.0,0 STARLINK-4711,1 53701U 22107B   23106.59712527  .00010026  00000-0  64709-3 0  9996,2 53701  53.2166 313.6717 0001187  74.3273 285.7850 15.08842882 35124,6917.872,95.437,540.558,538.915,0.0
53701.0,STARLINK-4711,PAYLOAD,2023-04-16 19:06:00,15.08857714,0.000118,53.217,312.7793,76.1232,283.9891,0.00079075,0.00012325,0.0,0 STARLINK-4711,1 53701U 22107B   23106.79583768  .00012325  00000-0  79075-3 0  9997,2 53701  53.2170 312.7793 0001180  76.1232 283.9891 15.08857714 34406,6917.826,95.436,540.508,538.875,0.0
53701.0,STARLINK-4711,PAYLOAD,2023-04-17 14:10:37,15.08854321,0.0001659,53.2172,309.215,108.7989,251.3183,-0.00047686,-7.872e-05,0.0,0 STARLINK-4711,1 53701U 22107B   23107.59071556 -.00007872  00000-0 -47686-3 0  9999,2 53701  53.2172 309.2150 0001659 108.7989 251.3183 15.08854321 35278,6917.837,95.437,540.849,538.554,0.0
53701.0,STARLINK-4711,PAYLOAD,2023-04-17 20:32:10,15.08850136,0.0001357,53.2174,308.0244,109.4485,250.6654,-0.00013129,-2.377e-05,0.0,0 STARLINK-4711,1 53701U 22107B   23107.85567576 -.00002377  00000-0 -13129-3 0  9990,2 53701  53.2174 308.0244 0001357 109.4485 250.6654 15.08850136 34561,6917.849,95.437,540.653,538.776,0.0
53701.0,STARLINK-4711,PAYLOAD,2023-04-18 06:04:29,15.0884839,0.0001064,53.2163,306.2374,85.7181,274.3933,0.00011042,1.47e-05,0.0,0 STARLINK-4711,1 53701U 22107B   23108.25311455  .00001470  00000-0  11042-3 0  9991,2 53701  53.2163 306.2374 0001064  85.7181 274.3933 15.08848390 35379,6917.855,95.437,540.456,538.984,0.0
53701.0,STARLINK-4711,PAYLOAD,2023-04-18 15:36:48,15.08841098,0.0001271,53.2164,304.4551,86.0923,274.0215,0.00014064,1.951e-05,0.0,0 STARLINK-4711,1 53701U 22107B   23108.65055728  .00001951  00000-0  14064-3 0  9994,2 53701  53.2164 304.4551 0001271  86.0923 274.0215 15.08841098 34686,6917.877,95.437,540.621,538.863,0.0
53701.0,STARLINK-4711,PAYLOAD,2023-04-18 17:12:11,15.08838726,0.0001213,53.217,304.1576,90.8856,269.2276,7.0457e-05,8.34e-06,0.0,0 STARLINK-4711,1 53701U 22107B   23108.71679795  .00000834  00000-0  70457-4 0  9995,2 53701  53.2170 304.1576 0001213  90.8856 269.2276 15.08838726 35443,6917.884,95.438,540.588,538.91,0.0
53701.0,STARLINK-4711,PAYLOAD,2023-04-19 05:55:16,15.08842566,1.89e-05,53.216,301.7771,162.2326,197.8672,0.00014222,1.977e-05,0.0,0 STARLINK-4711,1 53701U 22107B   23109.24671349  .00001977  00000-0  14222-3 0  9997,2 53701  53.2160 301.7771 0000189 162.2326 197.8672 15.08842566 35521,6917.873,95.437,539.868,539.607,0.0
53701.0,STARLINK-4711,PAYLOAD,2023-04-19 17:02:58,15.08842688,9.59e-05,53.217,299.6954,91.0946,269.0156,0.000209,3.04e-05,0.0,0 STARLINK-4711,1 53701U 22107B   23109.71039918  .00003040  00000-0  20900-3 0  9992,2 53701  53.2170 299.6954 0000959  91.0946 269.0156 15.08842688 35593,6917.872,95.437,540.401,539.074,0.0
53701.0,STARLINK-4711,PAYLOAD,2023-04-20 05:46:03,15.08846556,0.0001172,53.2165,297.316,85.4795,274.6331,0.00020763,3.019e-05,0.0,0 STARLINK-4711,1 53701U 22107B   23110.24031705  .00003019  00000-0  20763-3 0  9991,2 53701  53.2165 297.3160 0001172  85.4795 274.6331 15.08846556 34929,6917.86,95.437,540.536,538.915,0.0
53701.0,STARLINK-4711,PAYLOAD,2023-04-20 12:07:36,15.08845158,0.0001268,53.2159,296.1281,83.0441,277.0695,0.00020659,3.002e-05,0.0,0 STARLINK-4711,1 53701U 22107B   23110.50527807  .00003002  00000-0  20659-3 0  9999,2 53701  53.2159 296.1281 0001268  83.0441 277.0695 15.08845158 35716,6917.865,95.437,540.607,538.852,0.0
53701.0,STARLINK-4711,PAYLOAD,2023-04-20 18:29:08,15.08848064,0.0001356,53.2165,294.9386,81.8285,278.2861,0.00025607,3.791e-05,0.0,0 STARLINK-4711,1 53701U 22107B   23110.77023713  .00003791  00000-0  25607-3 0  9998,2 53701  53.2165 294.9386 0001356  81.8285 278.2861 15.08848064 35756,6917.856,95.437,540.659,538.783,0.0
53701.0,STARLINK-4711,PAYLOAD,2023-04-21 18:19:55,15.08844725,0.0001766,53.2138,290.4764,76.2917,283.8272,0.0001628,2.304e-05,0.0,0 STARLINK-4711,1 53701U 22107B   23111.76383830  .00002304  00000-0  16280-3 0  9993,2 53701  53.2138 290.4764 0001766  76.2917 283.8272 15.08844725 35154,6917.866,95.437,540.953,538.509,0.0
53701.0,STARLINK-4711,PAYLOAD,2023-04-21 21:30:41,15.08842438,0.0001396,53.2166,289.8833,68.1715,291.9426,0.00010662,1.409e-05,0.0,0 STARLINK-4711,1 53701U 22107B   23111.89631915  .00001409  00000-0  10662-3 0  9990,2 53701  53.2166 289.8833 0001396  68.1715 291.9426 15.08842438 35924,6917.873,95.437,540.704,538.772,0.0
